KUIPER-00095            
1 65134U 25171C   25339.25002315 -.00026425  00000+0 -19275-2 0  9991
2 65134  51.8936 209.5875 0005431 161.0689 251.6308 15.03015457  4698
KUIPER-00096            
1 65135U 25171D   25339.25002315 -.00013127  00000+0 -16948-2 0  9991
2 65135  51.8980 215.6980 0011570 191.6403  59.5584 14.79910972  2368
KUIPER-00097            
1 65136U 25171E   25338.92512263  .00009299  00000+0  12480-2 0  9993
2 65136  51.9003 219.6954 0010847 189.5536 170.5222 14.79874406 18811
KUIPER-00098            
1 65137U 25171F   25338.99502865  .00003090  00000+0  43383-3 0  9998
2 65137  51.9002 221.8258 0008052 177.4766 182.6238 14.79965323 18145
KUIPER-00099            
1 65138U 25171G   25339.25002315 -.00298208  00000+0 -27628-1 0  9995
2 65138  51.9158 211.3214 0006008 219.1981 176.2111 14.95695009  5476
KUIPER-00100            
1 65139U 25171H   25339.25002315 -.00008762  00000+0 -62188-3 0  9992
2 65139  51.8882 209.6513 0002513 224.0125 254.9519 15.03156961  5682
KUIPER-00102            
1 65140U 25171J   25339.25002315 -.01265019  00000+0 -12840+0 0  9991
2 65140  51.8937 211.1832 0012939 185.7873 154.7625 14.93525416  5164
KUIPER-00103            
1 65141U 25171K   25338.88567355  .00005773  00000+0  78492-3 0  9995
2 65141  51.8993 229.8035 0006340 175.5632 184.5388 14.79968225 18677
